[{"OBJECT_NAME":"STARLINK-36457","OBJECT_ID":"2026-003R","EPOCH":"2026-03-09T18:00:44.233344","MEAN_MOTION":15.27585861,"ECCENTRICITY":0.0001805,"INCLINATION":43,"RA_OF_ASC_NODE":226.6801,"ARG_OF_PERICENTER":270.3176,"MEAN_ANOMALY":89.7469,"EPHEMERIS_TYPE":0,"CLASSIFICATION_TYPE":"U","NORAD_CAT_ID":67349,"ELEMENT_SET_NO":999,"REV_AT_EPOCH":883,"BSTAR":0.0012266172,"MEAN_MOTION_DOT":0.00033652,"MEAN_MOTION_DDOT":0},{"OBJECT_NAME":"CZ-4C DEB","OBJECT_ID":"2007-055C","EPOCH":"2026-03-09T22:46:15.652128","MEAN_MOTION":15.30523578,"ECCENTRICITY":0.00469709,"INCLINATION":97.8668,"RA_OF_ASC_NODE":247.2248,"ARG_OF_PERICENTER":277.363,"MEAN_ANOMALY":82.2273,"EPHEMERIS_TYPE":0,"CLASSIFICATION_TYPE":"U","NORAD_CAT_ID":35248,"ELEMENT_SET_NO":999,"REV_AT_EPOCH":97353,"BSTAR":0.0018809895,"MEAN_MOTION_DOT":0.000577,"MEAN_MOTION_DDOT":0}]
